EUTELSAT 21B            
1 38992U 12062B   25335.29446404  .00000152  00000+0  00000+0 0  9999
2 38992   0.0724  15.5970 0003364 248.5751 293.8454  1.00273154 47842
EUTELSAT 70B            
1 39020U 12069A   25335.44685036 -.00000022  00000+0  00000+0 0  9999
2 39020   0.0625 357.0155 0004368 243.3107  61.6016  1.00271448 47521
EUTELSAT 117 WEST A     
1 39122U 13012A   25335.37753079  .00000009  00000+0  00000+0 0  9990
2 39122   0.0313  47.4906 0003046 202.9034 199.2227  1.00271706 46454
EUTELSAT 7B             
1 39163U 13022A   25335.14893383  .00000070  00000+0  00000+0 0  9992
2 39163   0.0675 354.1898 0004189 317.3656 179.3407  1.00272015 45977
EXPRESS-AT1             
1 39612U 14010A   25335.15864057  .00000099  00000+0  00000+0 0  9997
2 39612   0.0175 296.6629 0000609 172.2025  74.5457  1.00275146 42835
EXPRESS-AT2             
1 39613U 14010B   25335.53195757 -.00000260  00000+0  00000+0 0  9995
2 39613   0.0162 291.5611 0001118   6.7899 103.6645  1.00267702 42510
EUTELSAT 3B             
1 39773U 14030A   25335.29082399  .00000041  00000+0  00000+0 0  9990
2 39773   0.0628 356.4873 0004731 229.1495 312.5746  1.00270455 42086
EUTELSAT 115 WEST B     
1 40425U 15010B   25335.37753079 -.00000003  00000+0  00000+0 0  9993
2 40425   0.0355 150.8982 0000243 249.0916  51.5198  1.00271271 39409
